{
  "type": "FeatureCollection",
  "features": [
    {
      "type": "Feature",
      "properties": {
        "norad_id": 66174,
        "name": "HTV-X1",
        "group": "stations",
        "lat": 42.442957104517795,
        "lon": 126.6023911521991,
        "alt_km": 412.63535147354196,
        "timestamp": "2025-12-25T07:41:08.484424+00:00",
        "meta_object_name": "HTV-X1",
        "meta_object_id": "2025-241A",
        "meta_epoch": "2025-12-24T17:30:08.449344",
        "meta_mean_motion": 15.49788781,
        "meta_eccentricity": 0.00031932,
        "meta_inclination": 51.6317,
        "meta_ra_of_asc_node": 83.1022,
        "meta_arg_of_pericenter": 296.2044,
        "meta_mean_anomaly": 63.8616,
        "meta_ephemeris_type": 0,
        "meta_classification_type": "U",
        "meta_norad_cat_id": 66174,
        "meta_element_set_no": 999,
        "meta_rev_at_epoch": 51,
        "meta_bstar": 0.00024880559,
        "meta_mean_motion_dot": 0.00013665,
        "meta_mean_motion_ddot": 0,
        "tle_line1": "1 66174U 25241A   25358.72926446  .00013665  00000+0  24881-3 0  9997",
        "tle_line2": "2 66174  51.6317  83.1022 0003193 296.2044  63.8616 15.49788781   512"
      },
      "geometry": {
        "type": "Point",
        "coordinates": [
          126.6023911521991,
          42.442957104517795
        ]
      }
    },
    {
      "type": "Feature",
      "properties": {
        "norad_id": 66515,
        "name": "SZ-21 MODULE",
        "group": "stations",
        "lat": 0.6295709921848176,
        "lon": -60.022042979525224,
        "alt_km": 375.395079570133,
        "timestamp": "2025-12-25T07:41:08.484434+00:00",
        "meta_object_name": "SZ-21 MODULE",
        "meta_object_id": "2025-246C",
        "meta_epoch": "2025-12-24T13:16:51.562848",
        "meta_mean_motion": 15.63097156,
        "meta_eccentricity": 0.00047243,
        "meta_inclination": 41.4769,
        "meta_ra_of_asc_node": 303.9494,
        "meta_arg_of_pericenter": 323.7646,
        "meta_mean_anomaly": 36.2873,
        "meta_ephemeris_type": 0,
        "meta_classification_type": "U",
        "meta_norad_cat_id": 66515,
        "meta_element_set_no": 999,
        "meta_rev_at_epoch": 629,
        "meta_bstar": 0.00031177301,
        "meta_mean_motion_dot": 0.0002901,
        "meta_mean_motion_ddot": 0,
        "tle_line1": "1 66515U 25246C   25358.55337457  .00029010  00000+0  31177-3 0  9997",
        "tle_line2": "2 66515  41.4769 303.9494 0004724 323.7646  36.2873 15.63097156  6295"
      },
      "geometry": {
        "type": "Point",
        "coordinates": [
          -60.022042979525224,
          0.6295709921848176
        ]
      }
    },
    {
      "type": "Feature",
      "properties": {
        "norad_id": 66645,
        "name": "SHENZHOU-22",
        "group": "stations",
        "lat": -35.123170858038456,
        "lon": -112.49818234757933,
        "alt_km": 396.6280696731501,
        "timestamp": "2025-12-25T07:41:08.484444+00:00",
        "meta_object_name": "SHENZHOU-22",
        "meta_object_id": "2025-272A",
        "meta_epoch": "2025-12-24T21:11:11.048064",
        "meta_mean_motion": 15.59651715,
        "meta_eccentricity": 0.00082343,
        "meta_inclination": 41.4683,
        "meta_ra_of_asc_node": 302.9604,
        "meta_arg_of_pericenter": 137.936,
        "meta_mean_anomaly": 222.2112,
        "meta_ephemeris_type": 0,
        "meta_classification_type": "U",
        "meta_norad_cat_id": 66645,
        "meta_element_set_no": 999,
        "meta_rev_at_epoch": 26583,
        "meta_bstar": 0.00020600017,
        "meta_mean_motion_dot": 0.00016629,
        "meta_mean_motion_ddot": 0,
        "tle_line1": "1 66645U 25272A   25358.88276676  .00016629  00000+0  20600-3 0  9992",
        "tle_line2": "2 66645  41.4683 302.9604 0008234 137.9360 222.2112 15.59651715265836"
      },
      "geometry": {
        "type": "Point",
        "coordinates": [
          -112.49818234757933,
          -35.123170858038456
        ]
      }
    },
    {
      "type": "Feature",
      "properties": {
        "norad_id": 66664,
        "name": "SOYUZ-MS 28",
        "group": "stations",
        "lat": 42.44295815295509,
        "lon": 126.60239336344607,
        "alt_km": 412.6353513763388,
        "timestamp": "2025-12-25T07:41:08.484454+00:00",
        "meta_object_name": "SOYUZ-MS 28",
        "meta_object_id": "2025-275A",
        "meta_epoch": "2025-12-24T17:30:08.449344",
        "meta_mean_motion": 15.49788781,
        "meta_eccentricity": 0.00031932,
        "meta_inclination": 51.6317,
        "meta_ra_of_asc_node": 83.1022,
        "meta_arg_of_pericenter": 296.2044,
        "meta_mean_anomaly": 63.8616,
        "meta_ephemeris_type": 0,
        "meta_classification_type": "U",
        "meta_norad_cat_id": 66664,
        "meta_element_set_no": 999,
        "meta_rev_at_epoch": 128,
        "meta_bstar": 0.00024880559,
        "meta_mean_motion_dot": 0.00013665,
        "meta_mean_motion_ddot": 0,
        "tle_line1": "1 66664U 25275A   25358.72926446  .00013665  00000+0  24881-3 0  9998",
        "tle_line2": "2 66664  51.6317  83.1022 0003193 296.2044  63.8616 15.49788781  1281"
      },
      "geometry": {
        "type": "Point",
        "coordinates": [
          126.60239336344607,
          42.44295815295509
        ]
      }
    },
    {
      "type": "Feature",
      "properties": {
        "norad_id": 66906,
        "name": "1998-067XS",
        "group": "stations",
        "lat": 26.71617065463374,
        "lon": -123.50327044733866,
        "alt_km": 410.76691766362273,
        "timestamp": "2025-12-25T07:41:08.484464+00:00",
        "meta_object_name": "1998-067XS",
        "meta_object_id": "1998-067XS",
        "meta_epoch": "2025-12-24T12:30:34.892352",
        "meta_mean_motion": 15.51195693,
        "meta_eccentricity": 0.00027903,
        "meta_inclination": 51.6318,
        "meta_ra_of_asc_node": 83.9644,
        "meta_arg_of_pericenter": 262.1551,
        "meta_mean_anomaly": 97.9122,
        "meta_ephemeris_type": 0,
        "meta_classification_type": "U",
        "meta_norad_cat_id": 66906,
        "meta_element_set_no": 999,
        "meta_rev_at_epoch": 344,
        "meta_bstar": 0.00051725581,
        "meta_mean_motion_dot": 0.00030459,
        "meta_mean_motion_ddot": 0,
        "tle_line1": "1 66906U 98067XS  25358.52123718  .00030459  00000+0  51726-3 0  9993",
        "tle_line2": "2 66906  51.6318  83.9644 0002790 262.1551  97.9122 15.51195693  3443"
      },
      "geometry": {
        "type": "Point",
        "coordinates": [
          -123.50327044733866,
          26.71617065463374
        ]
      }
    },
    {
      "type": "Feature",
      "properties": {
        "norad_id": 66907,
        "name": "1998-067XT",
        "group": "stations",
        "lat": -30.101994257029656,
        "lon": -72.81789269371099,
        "alt_km": 411.2706404136861,
        "timestamp": "2025-12-25T07:41:08.484474+00:00",
        "meta_object_name": "1998-067XT",
        "meta_object_id": "1998-067XT",
        "meta_epoch": "2025-12-24T10:39:56.166048",
        "meta_mean_motion": 15.52879993,
        "meta_eccentricity": 0.00038856,
        "meta_inclination": 51.6313,
        "meta_ra_of_asc_node": 84.2012,
        "meta_arg_of_pericenter": 298.2919,
        "meta_mean_anomaly": 61.7678,
        "meta_ephemeris_type": 0,
        "meta_classification_type": "U",
        "meta_norad_cat_id": 66907,
        "meta_element_set_no": 999,
        "meta_rev_at_epoch": 343,
        "meta_bstar": 0.0010726177,
        "meta_mean_motion_dot": 0.00067981,
        "meta_mean_motion_ddot": 0,
        "tle_line1": "1 66907U 98067XT  25358.44440007  .00067981  00000+0  10726-2 0  9992",
        "tle_line2": "2 66907  51.6313  84.2012 0003885 298.2919  61.7678 15.52879993  3433"
      },
      "geometry": {
        "type": "Point",
        "coordinates": [
          -72.81789269371099,
          -30.101994257029656
        ]
      }
    },
    {
      "type": "Feature",
      "properties": {
        "norad_id": 66908,
        "name": "1998-067XU",
        "group": "stations",
        "lat": -34.2772839681763,
        "lon": -67.49154703616503,
        "alt_km": 410.899365504195,
        "timestamp": "2025-12-25T07:41:08.484484+00:00",
        "meta_object_name": "1998-067XU",
        "meta_object_id": "1998-067XU",
        "meta_epoch": "2025-12-24T10:38:25.805472",
        "meta_mean_motion": 15.52977314,
        "meta_eccentricity": 0.00038638,
        "meta_inclination": 51.6323,
        "meta_ra_of_asc_node": 84.1936,
        "meta_arg_of_pericenter": 296.7785,
        "meta_mean_anomaly": 63.2809,
        "meta_ephemeris_type": 0,
        "meta_classification_type": "U",
        "meta_norad_cat_id": 66908,
        "meta_element_set_no": 999,
        "meta_rev_at_epoch": 343,
        "meta_bstar": 0.0010585814,
        "meta_mean_motion_dot": 0.00067317,
        "meta_mean_motion_ddot": 0,
        "tle_line1": "1 66908U 98067XU  25358.44335423  .00067317  00000+0  10586-2 0  9995",
        "tle_line2": "2 66908  51.6323  84.1936 0003863 296.7785  63.2809 15.52977314  3438"
      },
      "geometry": {
        "type": "Point",
        "coordinates": [
          -67.49154703616503,
          -34.2772839681763
        ]
      }
    }
  ]
}